NORAD_CAT_ID,OBJECT_NAME,OBJECT_TYPE,EPOCH,MEAN_MOTION,ECCENTRICITY,INCLINATION,RA_OF_ASC_NODE,ARG_OF_PERICENTER,MEAN_ANOMALY,BSTAR,MEAN_MOTION_DOT,MEAN_MOTION_DDOT,TLE_LINE0,TLE_LINE1,TLE_LINE2,SEMIMAJOR_AXIS,PERIOD,APOGEE,PERIGEE,DECAYED
54053.0,STARLINK-5176,PAYLOAD,2023-05-20 07:18:01,15.08740418,0.0001903,53.2167,262.9729,104.4569,255.6634,0.001316,0.00020661,0.0,0 STARLINK-5176,1 54053U 22136C   23140.30418567  .00020661  00000-0  13160-2 0  9993,2 54053  53.2167 262.9729 0001903 104.4569 255.6634 15.08740418 32679,6918.185,95.444,541.366,538.733,0.0
54053.0,STARLINK-5176,PAYLOAD,2023-05-20 15:14:55,15.0885584,0.0001076,53.2176,261.4826,96.0691,264.0424,0.00012108,1.641e-05,0.0,0 STARLINK-5176,1 54053U 22136C   23140.63536981  .00001641  00000-0  12108-3 0  9999,2 54053  53.2176 261.4826 0001076  96.0691 264.0424 15.08855840 32727,6917.832,95.437,540.441,538.953,0.0
54053.0,STARLINK-5176,PAYLOAD,2023-05-21 00:47:15,15.08839256,0.0001138,53.2168,259.7023,88.347,271.7652,8.0365e-05,9.91e-06,0.0,0 STARLINK-5176,1 54053U 22136C   23141.03282115  .00000991  00000-0  80365-4 0  9999,2 54053  53.2168 259.7023 0001138  88.3470 271.7652 15.08839256 32782,6917.883,95.438,540.535,538.96,0.0
54053.0,STARLINK-5176,PAYLOAD,2023-05-21 10:19:35,15.08830461,0.0001082,53.2169,257.9192,88.9042,271.2074,-5.9126e-05,-1.228e-05,0.0,0 STARLINK-5176,1 54053U 22136C   23141.43027265 -.00001228  00000-0 -59126-4 0  9993,2 54053  53.2169 257.9192 0001082  88.9042 271.2074 15.08830461 32365,6917.91,95.438,540.523,539.026,0.0
54053.0,STARLINK-5176,PAYLOAD,2023-05-21 15:05:44,15.0883205,9.4e-05,53.2161,257.0281,81.3896,278.7202,-3.4054e-05,-8.3e-06,0.0,0 STARLINK-5176,1 54053U 22136C   23141.62899095 -.00000830  00000-0 -34054-4 0  9993,2 54053  53.2161 257.0281 0000940  81.3896 278.7202 15.08832050 32870,6917.905,95.438,540.42,539.119,0.0
54053.0,STARLINK-5176,PAYLOAD,2023-05-22 00:38:03,15.08838488,0.0001009,53.2167,255.2433,88.0784,272.0324,2.5649e-05,1.2e-06,0.0,0 STARLINK-5176,1 54053U 22136C   23142.02642579  .00000120  00000-0  25649-4 0  9991,2 54053  53.2167 255.2433 0001009  88.0784 272.0324 15.08838488 32932,6917.885,95.438,540.448,539.052,0.0
54053.0,STARLINK-5176,PAYLOAD,2023-05-22 10:10:22,15.08833493,0.000105,53.2166,253.4583,86.9061,273.2051,-1.2301e-05,-4.83e-06,0.0,0 STARLINK-5176,1 54053U 22136C   23142.42387128 -.00000483  00000-0 -12301-4 0  9996,2 54053  53.2166 253.4583 0001050  86.9061 273.2051 15.08833493 32513,6917.9,95.438,540.492,539.039,0.0
54053.0,STARLINK-5176,PAYLOAD,2023-05-22 14:56:31,15.08840589,0.0001013,53.2167,252.5659,89.6074,270.5034,1.8384e-05,5e-08,0.0,0 STARLINK-5176,1 54053U 22136C   23142.62258636  .00000005  00000-0  18384-4 0  9994,2 54053  53.2167 252.5659 0001013  89.6074 270.5034 15.08840589 32549,6917.879,95.438,540.444,539.043,0.0
54053.0,STARLINK-5176,PAYLOAD,2023-05-23 11:36:32,15.08831547,9.78e-05,53.2166,248.7005,89.709,270.4014,9.458e-05,1.217e-05,0.0,0 STARLINK-5176,1 54053U 22136C   23143.48371181  .00001217  00000-0  94580-4 0  9998,2 54053  53.2166 248.7005 0000978  89.7090 270.4014 15.08831547 33157,6917.906,95.438,540.448,539.095,0.0
54053.0,STARLINK-5176,PAYLOAD,2023-05-23 14:47:18,15.08837893,0.000125,53.2175,248.1044,69.858,290.2547,8.3501e-05,1.041e-05,0.0,0 STARLINK-5176,1 54053U 22136C   23143.61619012  .00001041  00000-0  83501-4 0  9997,2 54053  53.2175 248.1044 0001250  69.8580 290.2547 15.08837893 32690,6917.887,95.438,540.617,538.887,0.0
54053.0,STARLINK-5176,PAYLOAD,2023-05-24 13:02:43,15.08760015,0.0001272,53.217,243.9445,94.8543,265.2594,0.001103,0.00017271,0.0,0 STARLINK-5176,1 54053U 22136C   23144.54356374  .00017271  00000-0  11030-2 0  9997,2 54053  53.2170 243.9445 0001272  94.8543 265.2594 15.08760015 33319,6918.125,95.443,540.87,539.11,0.0
54053.0,STARLINK-5176,PAYLOAD,2023-05-25 19:15:01,15.08848688,0.0001156,53.2174,238.2929,90.3048,269.8076,9.5611e-05,1.234e-05,0.0,0 STARLINK-5176,1 54053U 22136C   23145.80210187  .00001234  00000-0  95611-4 0  9999,2 54053  53.2174 238.2929 0001156  90.3048 269.8076 15.08848688 33025,6917.854,95.437,540.519,538.919,0.0
54053.0,STARLINK-5176,PAYLOAD,2023-05-26 11:08:53,15.08838736,0.0001183,53.2169,235.3192,82.3507,277.7619,1.2863e-05,-8.3e-07,0.0,0 STARLINK-5176,1 54053U 22136C   23146.46451101 -.00000083  00000-0  12863-4 0  9995,2 54053  53.2169 235.3192 0001183  82.3507 277.7619 15.08838736 33608,6917.884,95.438,540.568,538.931,0.0
54053.0,STARLINK-5176,PAYLOAD,2023-05-26 15:55:02,15.08842812,0.0001164,53.2169,234.4262,85.9144,274.1981,3.3811e-05,2.5e-06,0.0,0 STARLINK-5176,1 54053U 22136C   23146.66322732  .00000250  00000-0  33811-4 0  9995,2 54053  53.2169 234.4262 0001164  85.9144 274.1981 15.08842812 33154,6917.872,95.437,540.542,538.932,0.0
54053.0,STARLINK-5176,PAYLOAD,2023-05-27 15:45:50,15.08841824,9.93e-05,53.2165,229.9659,93.1257,266.9849,-1.3483e-05,-5.02e-06,0.0,0 STARLINK-5176,1 54053U 22136C   23147.65682978 -.00000502  00000-0 -13483-4 0  9991,2 54053  53.2165 229.9659 0000993  93.1257 266.9849 15.08841824 33787,6917.875,95.437,540.427,539.053,0.0
54053.0,STARLINK-5176,PAYLOAD,2023-05-27 22:07:22,15.08840196,0.0001025,53.2165,228.7765,87.4068,272.7042,-3.3452e-05,-8.2e-06,0.0,0 STARLINK-5176,1 54053U 22136C   23147.92179154 -.00000820  00000-0 -33452-4 0  9999,2 54053  53.2165 228.7765 0001025  87.4068 272.7042 15.08840196 33348,6917.88,95.438,540.454,539.036,0.0
54053.0,STARLINK-5176,PAYLOAD,2023-05-28 10:50:28,15.0883583,0.0001099,53.2164,226.3977,91.5292,268.5826,1.5267e-05,-4.5e-07,0.0,0 STARLINK-5176,1 54053U 22136C   23148.45171512 -.00000045  00000-0  15267-4 0  9990,2 54053  53.2164 226.3977 0001099  91.5292 268.5826 15.08835830 33906,6917.893,95.438,540.518,538.998,0.0
54053.0,STARLINK-5176,PAYLOAD,2023-05-28 14:01:14,15.08837223,0.0001066,53.2167,225.8028,89.8263,270.2851,7.1107e-05,8.44e-06,0.0,0 STARLINK-5176,1 54053U 22136C   23148.58419299  .00000844  00000-0  71107-4 0  9992,2 54053  53.2167 225.8028 0001066  89.8263 270.2851 15.08837223 33447,6917.889,95.438,540.491,539.016,0.0
54053.0,STARLINK-5176,PAYLOAD,2023-05-29 13:52:01,15.08843847,0.0001117,53.2166,221.3426,88.627,271.485,7.3107e-05,8.76e-06,0.0,0 STARLINK-5176,1 54053U 22136C   23149.57778997  .00000876  00000-0  73107-4 0  9992,2 54053  53.2166 221.3426 0001117  88.6270 271.4850 15.08843847 33598,6917.869,95.437,540.506,538.961,0.0
54053.0,STARLINK-5176,PAYLOAD,2023-05-29 21:48:57,15.08839445,0.0001202,53.2174,219.8562,91.6857,268.4272,-7.8082e-06,-4.12e-06,0.0,0 STARLINK-5176,1 54053U 22136C   23149.90899523 -.00000412  00000-0 -78082-5 0  9994,2 54053  53.2174 219.8562 0001202  91.6857 268.4272 15.08839445 33649,6917.882,95.438,540.579,538.916,0.0
54053.0,STARLINK-5176,PAYLOAD,2023-05-30 04:10:29,15.08834435,0.0001195,53.2173,218.6672,96.204,263.9088,4.1517e-05,3.73e-06,0.0,0 STARLINK-5176,1 54053U 22136C   23150.17395762  .00000373  00000-0  41517-4 0  9997,2 54053  53.2173 218.6672 0001195  96.2040 263.9088 15.08834435 34160,6917.897,95.438,540.589,538.936,0.0
54053.0,STARLINK-5176,PAYLOAD,2023-05-30 12:07:25,15.08838264,0.0001211,53.217,217.1805,90.9969,269.1162,2.2199e-05,6.5e-07,0.0,0 STARLINK-5176,1 54053U 22136C   23150.50515661  .00000065  00000-0  22199-4 0  9999,2 54053  53.2170 217.1805 0001211  90.9969 269.1162 15.08838264 33736,6917.886,95.438,540.588,538.913,0.0
54053.0,STARLINK-5176,PAYLOAD,2023-05-30 21:39:44,15.08837384,0.0001171,53.2163,215.395,84.4033,275.7092,6.5169e-06,-1.84e-06,0.0,0 STARLINK-5176,1 54053U 22136C   23150.90259785 -.00000184  00000-0  65169-5 0  9993,2 54053  53.2163 215.3950 0001171  84.4033 275.7092 15.08837384 33797,6917.888,95.438,540.563,538.943,0.0
54053.0,STARLINK-5176,PAYLOAD,2023-05-31 10:22:49,15.08842178,0.0001152,53.2159,213.016,107.3155,252.7963,1.4855e-05,-5.1e-07,0.0,0 STARLINK-5176,1 54053U 22136C   23151.43251429 -.00000051  00000-0  14855-4 0  9997,2 54053  53.2159 213.0160 0001152 107.3155 252.7963 15.08842178 34351,6917.874,95.437,540.536,538.942,0.0
54053.0,STARLINK-5176,PAYLOAD,2023-05-31 13:33:35,15.0884356,0.0001186,53.216,212.4211,88.4712,271.6416,3.2399e-05,2.28e-06,0.0,0 STARLINK-5176,1 54053U 22136C   23151.56499328  .00000228  00000-0  32399-4 0  9991,2 54053  53.2160 212.4211 0001186  88.4712 271.6416 15.08843560 33895,6917.87,95.437,540.555,538.914,0.0
54053.0,STARLINK-5176,PAYLOAD,2023-05-31 21:30:31,15.0884133,0.0001101,53.2157,210.9344,93.0113,267.1005,1.8913e-05,1.3e-07,0.0,0 STARLINK-5176,1 54053U 22136C   23151.89619433  .00000013  00000-0  18913-4 0  9996,2 54053  53.2157 210.9344 0001101  93.0113 267.1005 15.08841330 33948,6917.876,95.437,540.503,538.98,0.0
54053.0,STARLINK-5176,PAYLOAD,2023-06-01 10:13:36,15.08837036,0.000113,53.2162,208.5556,84.7534,275.3587,1.1814e-05,-1e-06,0.0,0 STARLINK-5176,1 54053U 22136C   23152.42611840 -.00000100  00000-0  11814-4 0  9991,2 54053  53.2162 208.5556 0001130  84.7534 275.3587 15.08837036 34022,6917.889,95.438,540.536,538.973,0.0
54053.0,STARLINK-5176,PAYLOAD,2023-06-01 21:21:18,15.08837537,0.0001136,53.2165,206.4736,86.6299,273.4823,3.6389e-05,2.91e-06,0.0,0 STARLINK-5176,1 54053U 22136C   23152.88979780  .00000291  00000-0  36389-4 0  9995,2 54053  53.2165 206.4736 0001136  86.6299 273.4823 15.08837537 34575,6917.888,95.438,540.539,538.967,0.0
54053.0,STARLINK-5176,PAYLOAD,2023-06-02 10:04:23,15.08842912,0.0001088,53.2161,204.094,92.0326,268.0791,3.8462e-05,3.24e-06,0.0,0 STARLINK-5176,1 54053U 22136C   23153.41971399  .00000324  00000-0  38462-4 0  9994,2 54053  53.2161 204.0940 0001088  92.0326 268.0791 15.08842912 34173,6917.871,95.437,540.489,538.984,0.0
54053.0,STARLINK-5176,PAYLOAD,2023-06-03 09:55:11,15.088331,0.0001089,53.216,199.6341,82.9683,277.1433,1.2317e-05,-9.2e-07,0.0,0 STARLINK-5176,1 54053U 22136C   23154.41332292 -.00000092  00000-0  12317-4 0  9992,2 54053  53.2160 199.6341 0001089  82.9683 277.1433 15.08833100 34804,6917.901,95.438,540.52,539.013,0.0
